STARLINK-5652           
1 55334U 23013D   23045.83334491 -.00022962  00000+0 -17207-3 0  9990
2 55334  42.9989 285.9163 0001428 272.0374  67.7648 15.71364798  1300
STARLINK-5660           
1 55335U 23013E   23045.83334491 -.00120316  00000+0 -92595-3 0  9996
2 55335  42.9989 285.9129 0001608 276.9388  64.6943 15.71390617  3531
STARLINK-5655           
1 55336U 23013F   23045.83334491 -.00749109  00000+0 -42763-2 0  9995
2 55336  43.0001 284.3422 0003594 268.1225 343.2642 15.79872593  1308
STARLINK-5667           
1 55337U 23013G   23045.83334491 -.00829057  00000+0 -54088-2 0  9990
2 55337  42.9997 285.0013 0001547 259.0310  86.1802 15.77169843  1301
STARLINK-5658           
1 55338U 23013H   23045.83334491  .00029361  00000+0  22679-3 0  9991
2 55338  42.9988 285.9114 0001195 267.6268  74.5754 15.71331267  3538
STARLINK-5671           
1 55339U 23013J   23045.83334491 -.00000039  00000+0  31458-5 0  9991
2 55339  42.9986 285.9062 0001071 248.8570  95.7188 15.71349361  3539
STARLINK-5675           
1 55340U 23013K   23045.83334491 -.00054982  00000+0 -41810-3 0  9991
2 55340  42.9983 285.9046 0001464 251.2919  93.8621 15.71383603  3539
STARLINK-5670           
1 55341U 23013L   23045.83334491 -.00003153  00000+0 -20613-4 0  9995
2 55341  42.9980 285.9094 0001056 254.4715  89.5068 15.71352156  3532
STARLINK-5657           
1 55342U 23013M   23045.83334491  .00010237  00000+0  81460-4 0  9992
2 55342  42.9980 285.9033 0001609 252.2546  93.5178 15.71341584  1301
STARLINK-5661           
1 55343U 23013N   23045.83334491 -.00013650  00000+0 -10081-3 0  9997
2 55343  42.9989 285.8981 0001440 262.0855  84.8685 15.71357313  1300
STARLINK-5662           
1 55344U 23013P   23045.83334491  .00009470  00000+0  75727-4 0  9990
2 55344  42.9973 285.9000 0001664 244.6315 101.7906 15.71307339  1300
STARLINK-5653           
1 55345U 23013Q   23045.83334491 -.00915282  00000+0 -70694-2 0  9996
2 55345  42.9919 285.0516 0001814 269.0096  54.1823 15.73587344  3532
STARLINK-5631           
1 55346U 23013R   23045.83334491  .00014964  00000+0  11732-3 0  9991
2 55346  42.9987 285.8988 0001694 265.2259  82.2737 15.71361498  3538
STARLINK-5663           
1 55347U 23013S   23045.83334491 -.00004690  00000+0 -32349-4 0  9997
2 55347  42.9988 285.8918 0001177 260.5158  89.4205 15.71350346  3534
STARLINK-5609           
1 55348U 23013T   23045.83334491  .00009002  00000+0  72049-4 0  9999
2 55348  42.9982 285.8966 0001745 249.4060  98.7436 15.71345074  3532
STARLINK-5666           
1 55349U 23013U   23045.83334491 -.00024825  00000+0 -18636-3 0  9993
2 55349  42.9986 285.8957 0001200 277.3213  71.4150 15.71364866  3534
STARLINK-5668           
1 55350U 23013V   23045.83334491 -.00002442  00000+0 -15191-4 0  9990
2 55350  42.9991 285.8925 0001200 271.2067  78.1304 15.71352066  3531
STARLINK-5659           
1 55351U 23013W   23045.83334491 -.00035330  00000+0 -26743-3 0  9997
2 55351  42.9951 285.8820 0001693 251.3133 101.1049 15.71326654  1301
STARLINK-5547           
1 55352U 23013X   23045.83334491 -.00085755  00000+0 -65593-3 0  9990
2 55352  42.9990 285.8886 0001428 272.4669  78.6339 15.71402668  3538
STARLINK-5608           
1 55353U 23013Y   23045.83334491 -.00094653  00000+0 -72484-3 0  9995
2 55353  42.9989 285.8720 0002172 269.4728  86.9827 15.71409140  3539
STARLINK-5649           
1 55354U 23013Z   23045.83334491 -.00014064  00000+0 -10413-3 0  9998
2 55354  42.9977 285.8884 0001772 245.3162 106.4699 15.71321732  1306
STARLINK-5647           
1 55355U 23013AA  23045.83334491  .00013172  00000+0  10374-3 0  9992
2 55355  42.9988 285.8780 0001818 251.3119 102.7662 15.71353262  3533
STARLINK-5083           
1 55356U 23013AB  23045.83334491  .00047926  00000+0  36716-3 0  9995
2 55356  42.9989 285.8834 0001305 279.0036  73.8792 15.71333221  3536
STARLINK-5651           
1 55357U 23013AC  23045.83334491  .00069095  00000+0  52692-3 0  9998
2 55357  42.9991 285.8774 0001602 253.6457 101.0251 15.71313065  3536
STARLINK-5622           
1 55358U 23013AD  23045.83334491 -.00015549  00000+0 -11532-3 0  9994
2 55358  42.9991 285.8820 0001512 266.3031  87.1978 15.71360722  1303
STARLINK-5641           
1 55359U 23013AE  23045.83334491 -.00004106  00000+0 -27885-4 0  9991
2 55359  42.9990 285.8778 0001598 248.0134 107.2803 15.71351494  1307
STARLINK-5664           
1 55360U 23013AF  23045.83334491 -.00028253  00000+0 -21260-3 0  9992
2 55360  42.9986 285.8362 0001436 257.6746 114.2790 15.71370653  3537
STARLINK-5665           
1 55361U 23013AG  23045.83334491 -.00033456  00000+0 -25257-3 0  9994
2 55361  42.9993 285.8680 0001203 265.0147  93.2484 15.71369060  1308
STARLINK-5574           
1 55362U 23013AH  23045.83334491 -.00032025  00000+0 -24161-3 0  9999
2 55362  42.9985 285.8716 0001410 260.2419  97.4308 15.71365189  1308
STARLINK-5648           
1 55363U 23013AJ  23045.83334491 -.00131375  00000+0 -10104-2 0  9999
2 55363  42.9991 285.8680 0002235 270.9969  87.8151 15.71442075  1309
STARLINK-5627           
1 55364U 23013AK  23045.83334491 -.00020885  00000+0 -15617-3 0  9998
2 55364  42.9991 285.8746 0001422 268.5075  87.3757 15.71362810  1306
STARLINK-5639           
1 55365U 23013AL  23045.83334491 -.00035774  00000+0 -27040-3 0  9995
2 55365  42.9992 285.8635 0001336 266.4923  94.1578 15.71367194  1316
STARLINK-5654           
1 55366U 23013AM  23045.83334491 -.00112008  00000+0 -85974-3 0  9992
2 55366  42.9992 285.8713 0002174 277.9471  79.0986 15.71420545  1304
STARLINK-5635           
1 55367U 23013AN  23045.83334491 -.00026809  00000+0 -20153-3 0  9994
2 55367  42.9991 285.8623 0001966 277.2256  84.0134 15.71367693  1312
STARLINK-5625           
1 55368U 23013AP  23045.83334491 -.00121069  00000+0 -92903-3 0  9991
2 55368  42.9992 285.8661 0002266 266.2976  93.0771 15.71459438  1302
STARLINK-5644           
1 55369U 23013AQ  23045.83334491 -.00103601  00000+0 -79433-3 0  9997
2 55369  42.9993 285.8589 0002248 277.1458  84.6668 15.71415121  3538
STARLINK-5027           
1 55370U 23013AR  23045.83334491  .00055753  00000+0  42637-3 0  9997
2 55370  42.9989 285.8663 0001220 256.1422 103.8990 15.71321896  3532
STARLINK-5590           
1 55371U 23013AS  23045.83334491 -.00009552  00000+0 -69483-4 0  9995
2 55371  42.9992 285.8546 0001257 258.3348 105.2940 15.71354962  1302
STARLINK-5568           
1 55372U 23013AT  23045.83334491 -.00007581  00000+0 -54388-4 0  9994
2 55372  42.9988 285.8606 0002308 267.2197  95.2032 15.71363050  1302
STARLINK-5581           
1 55373U 23013AU  23045.83334491  .00070223  00000+0  53562-3 0  9998
2 55373  42.9990 285.8522 0001175 267.0459  97.1683 15.71303413  3530
STARLINK-5578           
1 55374U 23013AV  23045.83334491  .00066765  00000+0  50985-3 0  9991
2 55374  42.9987 285.8592 0000971 260.0605 102.9836 15.71292967  1302
STARLINK-5588           
1 55375U 23013AW  23045.83334491 -.00024815  00000+0 -18624-3 0  9998
2 55375  42.9981 285.8493 0002564 263.9392 102.0678 15.71364188  3539
STARLINK-5586           
1 55376U 23013AX  23045.83334491  .00008975  00000+0  71814-4 0  9997
2 55376  42.9991 285.8521 0001118 261.5924 103.8087 15.71353417  3538
STARLINK-5567           
1 55377U 23013AY  23045.83334491  .00032079  00000+0  24724-3 0  9997
2 55377  42.9985 285.8394 0001698 264.1196 106.0289 15.71344145  1303
STARLINK-5572           
1 55378U 23013AZ  23045.83334491  .00013396  00000+0  10546-3 0  9996
2 55378  42.9991 285.8530 0001911 266.2767  98.5289 15.71350344  1301
STARLINK-5569           
1 55379U 23013BA  23045.83334491  .00044158  00000+0  33876-3 0  9998
2 55379  42.9979 285.8424 0001463 263.8159 104.5607 15.71329900  3533
STARLINK-5571           
1 55380U 23013BB  23045.83334491 -.00025232  00000+0 -18946-3 0  9995
2 55380  42.9985 285.8463 0002066 265.4667 101.7303 15.71364616  1305
STARLINK-5575           
1 55381U 23013BC  23045.83334491 -.00022826  00000+0 -17134-3 0  9990
2 55381  42.9954 285.8400 0002157 258.4466 110.6579 15.71319356  3535
STARLINK-5576           
1 55382U 23013BD  23045.83334491 -.00025701  00000+0 -19301-3 0  9994
2 55382  42.9984 285.8481 0001394 254.6595 111.9298 15.71372472  1304
STARLINK-5531           
1 55383U 23013BE  23045.83334491  .00001876  00000+0  17746-4 0  9992
2 55383  42.9976 285.8386 0001368 259.5590 110.0101 15.71355319  1304
STARLINK-5537           
1 55384U 23013BF  23045.83334491 -.00005340  00000+0 -37272-4 0  9991
2 55384  42.9981 285.8447 0001486 261.1415 106.6188 15.71373449  3532
STARLINK-5556           
1 55385U 23013BG  23045.83334491 -.00035345  00000+0 -26695-3 0  9996
2 55385  42.9973 285.8343 0001300 260.9383 110.4081 15.71380740  3532
STARLINK-5555           
1 55386U 23013BH  23045.83334491 -.00047642  00000+0 -36162-3 0  9990
2 55386  42.9965 285.8357 0001458 262.5465 108.2196 15.71376063  1300
STARLINK-5077           
1 55391U 23014A   23046.14388034  .00002354  00000+0  21338-4 0  9993
2 55391  69.9991  49.0459 0003488 266.4996  93.5801 15.69924926  2476
STARLINK-5085           
1 55392U 23014B   23046.39639886  .00002469  00000+0  22284-4 0  9993
2 55392  70.0011  48.3221 0003325 268.9765  91.1050 15.69933778  2513
STARLINK-4786           
1 55393U 23014C   23046.14409018 -.00001055  00000+0 -70015-5 0  9997
2 55393  69.9992  49.0466 0003572 263.6921  96.3868 15.69920933  2476
STARLINK-5230           
1 55394U 23014D   23046.33555481  .00003796  00000+0  33314-4 0  9997
2 55394  69.9989  48.5094 0003459 260.8177  99.2628 15.69931730  2507
STARLINK-5274           
1 55395U 23014E   23046.14430071  .00000900  00000+0  92548-5 0  9993
2 55395  69.9991  49.0471 0003493 266.0866  93.9931 15.69924007  2470
STARLINK-5283           
1 55396U 23014F   23046.14472363  .00002007  00000+0  18460-4 0  9994
2 55396  69.9992  49.0486 0003479 266.8221  93.2577 15.69923943  2472
